{"type": "FeatureCollection", "features": [ {"type": "Feature", "properties": {"norad_id": 30358, "name": "FENGYUN 1C DEB", "group": "fengyun-1c-debris", "lat": -69.67879248947648, "lon": -14.764904553947343, "alt_km": 831.6025909868185, "timestamp": "2025-12-26T12:57:39.548693+00:00", "meta": {"OBJECT_NAME": "FENGYUN 1C DEB", "OBJECT_ID": "1999-025ABV", "EPOCH": "2025-12-25T12:23:23.980128", "MEAN_MOTION": 14.20756673, "ECCENTRICITY": 0.0082485, "INCLINATION": 98.5544, "RA_OF_ASC_NODE": 188.2255, "ARG_OF_PERICENTER": 162.4283, "MEAN_ANOMALY": 254.6286, "EPHEMERIS_TYPE": 0, "CLASSIFICATION_TYPE": "U", "NORAD_CAT_ID": 30358, "ELEMENT_SET_NO": 999, "REV_AT_EPOCH": 97099, "BSTAR": 0.0016315, "MEAN_MOTION_DOT": 3.602e-05, "MEAN_MOTION_DDOT": 0}, "tle": {"line1": "1 30358U 99025ABV 25359.51624977  .00003602  00000+0  16315-2 0  9997", "line2": "2 30358  98.5544 188.2255 0082485 162.4283 254.6286 14.20756673970998"}}, "geometry": {"type": "Point", "coordinates": [-14.764904553947343, -69.67879248947648]}}, {"type": "Feature", "properties": {"norad_id": 30359, "name": "FENGYUN 1C DEB", "group": "fengyun-1c-debris", "lat": 32.94526194985294, "lon": -177.89505579924563, "alt_km": 902.0494906503136, "timestamp": "2025-12-26T12:57:39.548703+00:00", "meta": {"OBJECT_NAME": "FENGYUN 1C DEB", "OBJECT_ID": "1999-025ABW", "EPOCH": "2025-12-25T10:57:56.608416", "MEAN_MOTION": 13.94091333, "ECCENTRICITY": 0.0145546, "INCLINATION": 101.6269, "RA_OF_ASC_NODE": 188.4129, "ARG_OF_PERICENTER": 311.1157, "MEAN_ANOMALY": 47.7504, "EPHEMERIS_TYPE": 0, "CLASSIFICATION_TYPE": "U", "NORAD_CAT_ID": 30359, "ELEMENT_SET_NO": 999, "REV_AT_EPOCH": 95246, "BSTAR": 0.0029936, "MEAN_MOTION_DOT": 4.267e-05, "MEAN_MOTION_DDOT": 0}, "tle": {"line1": "1 30359U 99025ABW 25359.45690519  .00004267  00000+0  29936-2 0  9997", "line2": "2 30359 101.6269 188.4129 0145546 311.1157  47.7504 13.94091333952463"}}, "geometry": {"type": "Point", "coordinates": [-177.89505579924563, 32.94526194985294]}}, {"type": "Feature", "properties": {"norad_id": 30360, "name": "FENGYUN 1C DEB", "group": "fengyun-1c-debris", "lat": -32.54343899632814, "lon": -115.49583780935215, "alt_km": 814.7969390322178, "timestamp": "2025-12-26T12:57:39.548713+00:00", "meta": {"OBJECT_NAME": "FENGYUN 1C DEB", "OBJECT_ID": "1999-025ABX", "EPOCH": "2025-12-25T04:07:04.531008", "MEAN_MOTION": 14.26589304, "ECCENTRICITY": 0.0030737, "INCLINATION": 98.7642, "RA_OF_ASC_NODE": 68.784, "ARG_OF_PERICENTER": 111.94, "MEAN_ANOMALY": 276.511, "EPHEMERIS_TYPE": 0, "CLASSIFICATION_TYPE": "U", "NORAD_CAT_ID": 30360, "ELEMENT_SET_NO": 999, "REV_AT_EPOCH": 97602, "BSTAR": 0.001556, "MEAN_MOTION_DOT": 3.731e-05, "MEAN_MOTION_DDOT": 0}, "tle": {"line1": "1 30360U 99025ABX 25359.17158022  .00003731  00000+0  15560-2 0  9999", "line2": "2 30360  98.7642  68.7840 0030737 111.9400 276.5110 14.26589304976027"}}, "geometry": {"type": "Point", "coordinates": [-115.49583780935215, -32.54343899632814]}}, {"type": "Feature", "properties": {"norad_id": 30361, "name": "FENGYUN 1C DEB", "group": "fengyun-1c-debris", "lat": -72.14883280437495, "lon": -171.76440398994947, "alt_km": 818.7970232405714, "timestamp": "2025-12-26T12:57:39.548722+00:00", "meta": {"OBJECT_NAME": "FENGYUN 1C DEB", "OBJECT_ID": "1999-025ABY", "EPOCH": "2025-12-26T01:39:34.661952", "MEAN_MOTION": 14.25405805, "ECCENTRICITY": 0.00647497, "INCLINATION": 98.5687, "RA_OF_ASC_NODE": 35.691, "ARG_OF_PERICENTER": 351.4125, "MEAN_ANOMALY": 8.5942, "EPHEMERIS_TYPE": 0, "CLASSIFICATION_TYPE": "U", "NORAD_CAT_ID": 30361, "ELEMENT_SET_NO": 999, "REV_AT_EPOCH": 97806, "BSTAR": 0.00079869848, "MEAN_MOTION_DOT": 1.883e-05, "MEAN_MOTION_DDOT": 0}, "tle": {"line1": "1 30361U 99025ABY 25360.06915118  .00001883  00000+0  79870-3 0  9998", "line2": "2 30361  98.5687  35.6910 0064749 351.4125   8.5942 14.25405805978065"}}, "geometry": {"type": "Point", "coordinates": [-171.76440398994947, -72.14883280437495]}}, {"type": "Feature", "properties": {"norad_id": 30362, "name": "FENGYUN 1C DEB", "group": "fengyun-1c-debris", "lat": -47.85114302114036, "lon": -66.38935098995262, "alt_km": 791.1341297591543, "timestamp": "2025-12-26T12:57:39.548733+00:00", "meta": {"OBJECT_NAME": "FENGYUN 1C DEB", "OBJECT_ID": "1999-025ABZ", "EPOCH": "2025-12-23T05:15:11.326176", "MEAN_MOTION": 14.11916121, "ECCENTRICITY": 0.00950352, "INCLINATION": 99.0504, "RA_OF_ASC_NODE": 280.1175, "ARG_OF_PERICENTER": 314.7871, "MEAN_ANOMALY": 44.5598, "EPHEMERIS_TYPE": 0, "CLASSIFICATION_TYPE": "U", "NORAD_CAT_ID": 30362, "ELEMENT_SET_NO": 999, "REV_AT_EPOCH": 96316, "BSTAR": 0.0025793491, "MEAN_MOTION_DOT": 4.875e-05, "MEAN_MOTION_DDOT": 0}, "tle": {"line1": "1 30362U 99025ABZ 25357.21888109  .00004875  00000+0  25793-2 0  9999", "line2": "2 30362  99.0504 280.1175 0095035 314.7871  44.5598 14.11916121963167"}}, "geometry": {"type": "Point", "coordinates": [-66.38935098995262, -47.85114302114036]}}, {"type": "Feature", "properties": {"norad_id": 30363, "name": "FENGYUN 1C DEB", "group": "fengyun-1c-debris", "lat": 79.60789229362337, "lon": -47.98805095825391, "alt_km": 833.8206890570673, "timestamp": "2025-12-26T12:57:39.548743+00:00", "meta": {"OBJECT_NAME": "FENGYUN 1C DEB", "OBJECT_ID": "1999-025ACA", "EPOCH": "2025-12-26T04:02:39.283872", "MEAN_MOTION": 14.1694874, "ECCENTRICITY": 0.00785873, "INCLINATION": 99.03, "RA_OF_ASC_NODE": 71.5096, "ARG_OF_PERICENTER": 0.1401, "MEAN_ANOMALY": 359.9782, "EPHEMERIS_TYPE": 0, "CLASSIFICATION_TYPE": "U", "NORAD_CAT_ID": 30363, "ELEMENT_SET_NO": 999, "REV_AT_EPOCH": 97014, "BSTAR": 0.001372767, "MEAN_MOTION_DOT": 2.795e-05, "MEAN_MOTION_DDOT": 0}, "tle": {"line1": "1 30363U 99025ACA 25360.16851023  .00002795  00000+0  13728-2 0  9997", "line2": "2 30363  99.0300  71.5096 0078587   0.1401 359.9782 14.16948740970145"}}, "geometry": {"type": "Point", "coordinates": [-47.98805095825391, 79.60789229362337]}}, {"type": "Feature", "properties": {"norad_id": 30364, "name": "FENGYUN 1C DEB", "group": "fengyun-1c-debris", "lat": -47.9399426159791, "lon": 86.62796332753904, "alt_km": 688.3262661513163, "timestamp": "2025-12-26T12:57:39.548753+00:00", "meta": {"OBJECT_NAME": "FENGYUN 1C DEB", "OBJECT_ID": "1999-025ACB", "EPOCH": "2025-12-25T17:21:29.143872", "MEAN_MOTION": 14.17375884, "ECCENTRICITY": 0.03302942, "INCLINATION": 98.1382, "RA_OF_ASC_NODE": 275.003, "ARG_OF_PERICENTER": 282.5055, "MEAN_ANOMALY": 103.5826, "EPHEMERIS_TYPE": 0, "CLASSIFICATION_TYPE": "U", "NORAD_CAT_ID": 30364, "ELEMENT_SET_NO": 999, "REV_AT_EPOCH": 95825, "BSTAR": 0.0030520471, "MEAN_MOTION_DOT": 0.00010553, "MEAN_MOTION_DDOT": 0}, "tle": {"line1": "1 30364U 99025ACB 25359.72325398  .00010553  00000+0  30520-2 0  9999", "line2": "2 30364  98.1382 275.0030 0330294 282.5055 103.5826 14.17375884958256"}}, "geometry": {"type": "Point", "coordinates": [86.62796332753904, -47.9399426159791]}}, {"type": "Feature", "properties": {"norad_id": 30365, "name": "FENGYUN 1C DEB", "group": "fengyun-1c-debris", "lat": 14.035282866125476, "lon": 176.7238015198287, "alt_km": 835.0205352811281, "timestamp": "2025-12-26T12:57:39.548763+00:00", "meta": {"OBJECT_NAME": "FENGYUN 1C DEB", "OBJECT_ID": "1999-025ACC", "EPOCH": "2025-12-25T22:55:01.931808", "MEAN_MOTION": 14.19243437, "ECCENTRICITY": 0.0168039, "INCLINATION": 98.6197, "RA_OF_ASC_NODE": 353.9812, "ARG_OF_PERICENTER": 73.4885, "MEAN_ANOMALY": 342.2347, "EPHEMERIS_TYPE": 0, "CLASSIFICATION_TYPE": "U", "NORAD_CAT_ID": 30365, "ELEMENT_SET_NO": 999, "REV_AT_EPOCH": 97800, "BSTAR": 0.00023089, "MEAN_MOTION_DOT": 5.15e-06, "MEAN_MOTION_DDOT": 0}, "tle": {"line1": "1 30365U 99025ACC 25359.95488347  .00000515  00000+0  23089-3 0  9999", "line2": "2 30365  98.6197 353.9812 0168039  73.4885 342.2347 14.19243437978009"}}, "geometry": {"type": "Point", "coordinates": [176.7238015198287, 14.035282866125476]}}, {"type": "Feature", "properties": {"norad_id": 30366, "name": "FENGYUN 1C DEB", "group": "fengyun-1c-debris", "lat": -59.40019143953838, "lon": 83.04583641803801, "alt_km": 765.9374102304728, "timestamp": "2025-12-26T12:57:39.548777+00:00", "meta": {"OBJECT_NAME": "FENGYUN 1C DEB", "OBJECT_ID": "1999-025ACD", "EPOCH": "2025-12-25T17:33:30.676320", "MEAN_MOTION": 14.33521453, "ECCENTRICITY": 0.00624533, "INCLINATION": 98.9242, "RA_OF_ASC_NODE": 277.6208, "ARG_OF_PERICENTER": 180.8003, "MEAN_ANOMALY": 209.401, "EPHEMERIS_TYPE": 0, "CLASSIFICATION_TYPE": "U", "NORAD_CAT_ID": 30366, "ELEMENT_SET_NO": 999, "REV_AT_EPOCH": 98509, "BSTAR": 0.00046377248, "MEAN_MOTION_DOT": 1.264e-05, "MEAN_MOTION_DDOT": 0}, "tle": {"line1": "1 30366U 99025ACD 25359.73160505  .00001264  00000+0  46377-3 0  9996", "line2": "2 30366  98.9242 277.6208 0062453 180.8003 209.4010 14.33521453985094"}}, "geometry": {"type": "Point", "coordinates": [83.04583641803801, -59.40019143953838]}}, {"type": "Feature", "properties": {"norad_id": 30368, "name": "FENGYUN 1C DEB", "group": "fengyun-1c-debris", "lat": 36.68940141730953, "lon": -67.10502601152575, "alt_km": 1062.0415750648726, "timestamp": "2025-12-26T12:57:39.548787+00:00", "meta": {"OBJECT_NAME": "FENGYUN 1C DEB", "OBJECT_ID": "1999-025ACF", "EPOCH": "2025-12-24T20:43:29.343648", "MEAN_MOTION": 13.7537778, "ECCENTRICITY": 0.01863355, "INCLINATION": 99.1881, "RA_OF_ASC_NODE": 104.3527, "ARG_OF_PERICENTER": 275.917, "MEAN_ANOMALY": 211.854, "EPHEMERIS_TYPE": 0, "CLASSIFICATION_TYPE": "U", "NORAD_CAT_ID": 30368, "ELEMENT_SET_NO": 999, "REV_AT_EPOCH": 94828, "BSTAR": 0.00049197383, "MEAN_MOTION_DOT": 4.92e-06, "MEAN_MOTION_DDOT": 0}, "tle": {"line1": "1 30368U 99025ACF 25358.86353407  .00000492  00000+0  49197-3 0  9991", "line2": "2 30368  99.1881 104.3527 0186335 275.9170 211.8540 13.75377780948287"}}, "geometry": {"type": "Point", "coordinates": [-67.10502601152575, 36.68940141730953]}}]}